{
    "links": {
        "self": "http://www.neowsapp.com/rest/v1/neo/54005697?api_key=iIulBulltgU6a56xZRHN4H3l9WmuAYTsLGpBGhQ2"
    },
    "id": "54005697",
    "neo_reference_id": "54005697",
    "name": "(2020 BK16)",
    "designation": "2020 BK16",
    "nasa_jpl_url": "http://ssd.jpl.nasa.gov/sbdb.cgi?sstr=54005697",
    "absolute_magnitude_h": 26.729,
    "estimated_diameter": {
        "kilometers": {
            "estimated_diameter_min": 0.0119882275,
            "estimated_diameter_max": 0.0268064917
        },
        "meters": {
            "estimated_diameter_min": 11.9882275185,
            "estimated_diameter_max": 26.8064916611
        },
        "miles": {
            "estimated_diameter_min": 0.0074491369,
            "estimated_diameter_max": 0.0166567765
        },
        "feet": {
            "estimated_diameter_min": 39.3314563718,
            "estimated_diameter_max": 87.9478101014
        }
    },
    "is_potentially_hazardous_asteroid": false,
    "close_approach_data": [
        {
            "close_approach_date": "2020-01-29",
            "close_approach_date_full": "2020-Jan-29 21:57",
            "epoch_date_close_approach": 1580335020000,
            "relative_velocity": {
                "kilometers_per_second": "7.3968856762",
                "kilometers_per_hour": "26628.7884344618",
                "miles_per_hour": "16546.0935691799"
            },
            "miss_distance": {
                "astronomical": "0.0190636743",
                "lunar": "7.4157693027",
                "kilometers": "2851885.069653741",
                "miles": "1772079.2098779858"
            },
            "orbiting_body": "Earth"
        }
    ],
    "orbital_data": {
        "orbit_id": "1",
        "orbit_determination_date": "2020-03-17 01:09:33",
        "first_observation_date": "2020-01-21",
        "last_observation_date": "2020-01-22",
        "data_arc_in_days": 1,
        "observations_used": 6,
        "orbit_uncertainty": "9",
        "minimum_orbit_intersection": ".0105723",
        "jupiter_tisserand_invariant": "3.397",
        "epoch_osculation": "2458869.5",
        "eccentricity": ".5592659843033528",
        "semi_major_axis": "2.2560206994209",
        "inclination": "3.139561641824624",
        "ascending_node_longitude": "145.1007404361397",
        "orbital_period": "1237.693319901189",
        "perihelion_distance": ".9943050623505317",
        "perihelion_argument": "349.1615321565815",
        "aphelion_distance": "3.517736336491268",
        "perihelion_time": "2458882.226928719925",
        "mean_anomaly": "356.2981990243441",
        "mean_motion": ".2908636527413274",
        "equinox": "J2000",
        "orbit_class": {
            "orbit_class_type": "APO",
            "orbit_class_description": "Near-Earth asteroid orbits which cross the Earth’s orbit similar to that of 1862 Apollo",
            "orbit_class_range": "a (semi-major axis) > 1.0 AU; q (perihelion) < 1.017 AU"
        }
    },
    "is_sentry_object": false
}